ASTRA 1M                
1 33436U 08057A   26191.86086316  .00000129  00000+0  00000+0 0  9996
2 33436   0.3545  82.7282 0004791  41.4975 133.8788  1.00274241 45972
EUTELSAT HOTBIRD 13C    
1 33459U 08065A   26192.05592207 -.00000278  00000+0  00000+0 0  9999
2 33459   3.0088  78.9082 0003349  33.1984 146.6837  1.00272288 47585
EXPRESS-AM44            
1 33595U 09007A   26192.06371338 -.00000085  00000+0  00000+0 0  9994
2 33595   3.5210  78.1076 0003773  25.0070 197.7807  1.00271381 52527
NSS-9                   
1 33749U 09008A   26192.17345766  .00000077  00000+0  00000+0 0  9994
2 33749   1.3209  82.4201 0001868  18.2681  73.9017  1.00270552 63760
TELSTAR 11N             
1 34111U 09009A   26192.05851336 -.00000243  00000+0  00000+0 0  9997
2 34111   0.0440 264.3249 0002324 200.6426 167.5166  1.00270228 46487
WGS F2 (USA 204)        
1 34713U 09017A   26192.08149962  .00000076  00000+0  00000+0 0  9995
2 34713   0.0176  24.8085 0000406 209.2371 141.7815  1.00270282 45856
SES-7 (PROTOSTAR 2)     
1 34941U 09027A   26192.01602170 -.00000337  00000+0  00000+0 0  9998
2 34941   0.0205  55.9386 0000442 182.5293 164.4784  1.00270305 62860
MEASAT-3A               
1 35362U 09032A   26191.49440861 -.00000101  00000+0  00000+0 0  9999
2 35362   0.0236  24.5620 0002746  79.6023 162.2341  1.00270493  8268
GOES 14                 
1 35491U 09033A   26192.17892022 -.00000349  00000+0  00000+0 0  9993
2 35491   1.7487  82.7447 0001887  39.8560 358.4650  1.00100133  6835
FM-5                    
1 35493U 09034A   26192.20718933 -.00000193  00000+0  00000+0 0  9995
2 35493   0.0356 275.9829 0000522  53.2835 308.2744  1.00271247 46885
TERRESTAR-1             
1 35496U 09035A   26191.99391617 -.00000053  00000+0  00000+0 0  9995
2 35496   5.1941  48.7789 0002601  54.5507  72.3889  1.00273026 62373
ASIASAT 5               
1 35696U 09042A   26192.07837716 -.00000300  00000+0  00000+0 0  9995
2 35696   0.0149 286.7836 0001768 152.0710 338.8329  1.00274640 61943
JCSAT-12 (JCSAT-RA)     
1 35755U 09044A   26192.15114360 -.00000320  00000+0  00000+0 0  9997
2 35755   0.0403 281.3097 0000573 295.2712 258.9479  1.00270905 61855
OPTUS D3                
1 35756U 09044B   26192.20183432 -.00000137  00000+0  00000+0 0  9996
2 35756   0.8915 268.3378 0003110 204.6913  44.8812  1.00271566 61808
NIMIQ 5                 
1 35873U 09050A   26192.21171780 -.00000250  00000+0  00000+0 0  9993
2 35873   0.0521 259.3637 0002552 205.1705 188.1016  1.00272143 61580
AMAZONAS 2              
1 35942U 09054A   26192.21237847 -.00000254  00000+0  00000+0 0  9995
2 35942   1.8748  82.7416 0003146  29.3801 181.4674  1.00271227 61424
COMSATBW-1              
1 35943U 09054B   26192.07836013  .00000033  00000+0  00000+0 0  9994
2 35943   0.0615 188.2606 0002644 282.4812 269.5051  1.00268856 61542
NSS-12                  
1 36032U 09058A   26192.07723345  .00000080  00000+0  00000+0 0  9993
2 36032   0.0453 285.0904 0004430 150.9345 297.7655  1.00267937 61153
THOR 6                  
1 36033U 09058B   26191.06772597  .00000002  00000+0  00000+0 0  9999
2 36033   0.0330 242.6050 0002256 261.1122 167.8048  1.00271204 61235
INTELSAT 14 (IS-14)     
1 36097U 09064A   26192.05670207 -.00000266  00000+0  00000+0 0  9994
2 36097   0.0180  27.4513 0002247  87.7018 149.2421  1.00271499 60848
EUTELSAT 36B            
1 36101U 09065A   26192.07593345  .00000119  00000+0  00000+0 0  9996
2 36101   0.5485  81.2924 0005735  30.3127 255.2000  1.00272110 60944
INTELSAT 15 (IS-15)     
1 36106U 09067A   26192.08278014 -.00000177  00000+0  00000+0 0  9992
2 36106   0.0121  54.8164 0002111  63.3467 285.7864  1.00271385 41466
WGS F3 (USA 211)        
1 36108U 09068A   26191.68372882  .00000074  00000+0  00000+0 0  9993
2 36108   0.3011  85.5195 0000163 144.4224 174.8188  1.00261404 46824
DIRECTV 12              
1 36131U 09075A   26191.40395524 -.00000093  00000+0  00000+0 0  9997
2 36131   0.0378 197.5077 0000394  15.9281 117.5818  1.00270757 46787
BEIDOU-2 G1             
1 36287U 10001A   26191.95114009 -.00000276  00000+0  00000+0 0  9990
2 36287   4.3457  60.3222 0001953 294.0563  57.3400  1.00273740 60406
SDO                     
1 36395U 10005A   26190.29623794 -.00000089  00000+0  00000+0 0  9998
2 36395  34.6945  86.0076 0001880  60.2380 145.3020  1.00269380 60282
INTELSAT 16 (IS-16)     
1 36397U 10006A   26192.21171183 -.00000238  00000+0  00000+0 0  9991
2 36397   0.0118  22.9130 0002242 109.6323 156.5926  1.00271270 59896
EWS-G2 (GOES 15)        
1 36411U 10008A   26192.07844678  .00000028  00000+0  00000+0 0  9996
2 36411   1.3404  82.5149 0005209  53.1298 244.9502  1.00268091 59874
ECHOSTAR 14             
1 36499U 10010A   26192.19453242  .00000008  00000+0  00000+0 0  9999
2 36499   0.0472 260.8073 0001947 189.9734 149.4432  1.00270476 46794
SES-1                   
1 36516U 10016A   26192.20121895 -.00000107  00000+0  00000+0 0  9994
2 36516   0.0449 283.9782 0002451 182.6005 153.9573  1.00270296 59276
ASTRA 3B                
1 36581U 10021A   26191.99929494  .00000144  00000+0  00000+0 0  9998
2 36581   1.5295  83.2677 0004282  22.3890 206.5261  1.00275079 59108
COMSATBW-2              
1 36582U 10021B   26192.19627999  .00000096  00000+0  00000+0 0  9993
2 36582   0.0465 127.0332 0002371   2.6702 243.2748  1.00272490 59198
