OBJECT_NAME,OBJECT_ID,EPOCH,MEAN_MOTION,ECCENTRICITY,INCLINATION,RA_OF_ASC_NODE,ARG_OF_PERICENTER,MEAN_ANOMALY,EPHEMERIS_TYPE,CLASSIFICATION_TYPE,NORAD_CAT_ID,ELEMENT_SET_NO,REV_AT_EPOCH,BSTAR,MEAN_MOTION_DOT,MEAN_MOTION_DDOT
ASTRA 1M,2008-057A,2026-07-10T20:39:38.577024,1.00274241,.0004791,0.3545,82.7282,41.4975,133.8788,0,U,33436,999,4597,0,.129E-5,0
EUTELSAT HOTBIRD 13C,2008-065A,2026-07-11T01:20:31.666848,1.00272288,.0003349,3.0088,78.9082,33.1984,146.6837,0,U,33459,999,4758,0,-.278E-5,0
EXPRESS-AM44,2009-007A,2026-07-11T01:31:44.836032,1.00271381,.0003773,3.5210,78.1076,25.0070,197.7807,0,U,33595,999,5252,0,-.85E-6,0
NSS-9,2009-008A,2026-07-11T04:09:46.741824,1.00270552,.0001868,1.3209,82.4201,18.2681,73.9017,0,U,33749,999,6376,0,.77E-6,0
TELSTAR 11N,2009-009A,2026-07-11T01:24:15.554304,1.00270228,.0002324,0.0440,264.3249,200.6426,167.5166,0,U,34111,999,4648,0,-.243E-5,0
WGS F2 (USA 204),2009-017A,2026-07-11T01:57:21.567168,1.00270282,.0000406,0.0176,24.8085,209.2371,141.7815,0,U,34713,999,4585,0,.76E-6,0
SES-7 (PROTOSTAR 2),2009-027A,2026-07-11T00:23:04.274880,1.00270305,.0000442,0.0205,55.9386,182.5293,164.4784,0,U,34941,999,6286,0,-.337E-5,0
MEASAT-3A,2009-032A,2026-07-10T11:51:56.903904,1.00270493,.00027463,0.0236,24.5620,79.6023,162.2341,0,U,35362,999,826,0,-.101E-5,0
GOES 14,2009-033A,2026-07-11T04:17:38.707008,1.00100133,.0001887,1.7487,82.7447,39.8560,358.4650,0,U,35491,999,683,0,-.349E-5,0
FM-5,2009-034A,2026-07-11T04:58:21.158112,1.00271247,.0000522,0.0356,275.9829,53.2835,308.2744,0,U,35493,999,4688,0,-.193E-5,0
TERRESTAR-1,2009-035A,2026-07-10T23:51:14.357088,1.00273026,.0002601,5.1941,48.7789,54.5507,72.3889,0,U,35496,999,6237,0,-.53E-6,0
ASIASAT 5,2009-042A,2026-07-11T01:52:51.786624,1.00274640,.0001768,0.0149,286.7836,152.0710,338.8329,0,U,35696,999,6194,0,-.3E-5,0
JCSAT-12 (JCSAT-RA),2009-044A,2026-07-11T03:37:38.807040,1.00270905,.0000573,0.0403,281.3097,295.2712,258.9479,0,U,35755,999,6185,0,-.32E-5,0
OPTUS D3,2009-044B,2026-07-11T04:50:38.485248,1.00271566,.000311,0.8915,268.3378,204.6913,44.8812,0,U,35756,999,6180,0,-.137E-5,0
NIMIQ 5,2009-050A,2026-07-11T05:04:52.417920,1.00272143,.0002552,0.0521,259.3637,205.1705,188.1016,0,U,35873,999,6158,0,-.25E-5,0
AMAZONAS 2,2009-054A,2026-07-11T05:05:49.499808,1.00271227,.0003146,1.8748,82.7416,29.3801,181.4674,0,U,35942,999,6142,0,-.254E-5,0
COMSATBW-1,2009-054B,2026-07-11T01:52:50.315232,1.00268856,.0002644,0.0615,188.2606,282.4812,269.5051,0,U,35943,999,6154,0,.33E-6,0
NSS-12,2009-058A,2026-07-11T01:51:12.970080,1.00267937,.000443,0.0453,285.0904,150.9345,297.7655,0,U,36032,999,6115,0,.8E-6,0
THOR 6,2009-058B,2026-07-10T01:37:31.523808,1.00271204,.00022568,0.0330,242.6050,261.1122,167.8048,0,U,36033,999,6123,0,.2E-7,0
INTELSAT 14 (IS-14),2009-064A,2026-07-11T01:21:39.058848,1.00271499,.0002247,0.0180,27.4513,87.7018,149.2421,0,U,36097,999,6084,0,-.266E-5,0
EUTELSAT 36B,2009-065A,2026-07-11T01:49:20.650080,1.00272110,.0005735,0.5485,81.2924,30.3127,255.2000,0,U,36101,999,6094,0,.119E-5,0
INTELSAT 15 (IS-15),2009-067A,2026-07-11T01:59:12.204096,1.00271385,.0002111,0.0121,54.8164,63.3467,285.7864,0,U,36106,999,4146,0,-.177E-5,0
WGS F3 (USA 211),2009-068A,2026-07-10T16:24:34.170048,1.00261404,.0000163,0.3011,85.5195,144.4224,174.8188,0,U,36108,999,4682,0,.74E-6,0
DIRECTV 12,2009-075A,2026-07-10T09:41:41.732736,1.00270757,.00003948,0.0378,197.5077,15.9281,117.5818,0,U,36131,999,4678,0,-.93E-6,0
BEIDOU-2 G1,2010-001A,2026-07-10T22:49:38.503776,1.00273740,.0001953,4.3457,60.3222,294.0563,57.3400,0,U,36287,999,6040,0,-.276E-5,0
SDO,2010-005A,2026-07-09T07:06:34.958016,1.00269380,.00018801,34.6945,86.0076,60.2380,145.3020,0,U,36395,999,6028,0,-.89E-6,0
INTELSAT 16 (IS-16),2010-006A,2026-07-11T05:04:51.902112,1.00271270,.0002242,0.0118,22.9130,109.6323,156.5926,0,U,36397,999,5989,0,-.238E-5,0
EWS-G2 (GOES 15),2010-008A,2026-07-11T01:52:57.801792,1.00268091,.0005209,1.3404,82.5149,53.1298,244.9502,0,U,36411,999,5987,0,.28E-6,0
ECHOSTAR 14,2010-010A,2026-07-11T04:40:07.601088,1.00270476,.0001947,0.0472,260.8073,189.9734,149.4432,0,U,36499,999,4679,0,.8E-7,0
SES-1,2010-016A,2026-07-11T04:49:45.317280,1.00270296,.0002451,0.0449,283.9782,182.6005,153.9573,0,U,36516,999,5927,0,-.107E-5,0
ASTRA 3B,2010-021A,2026-07-10T23:58:59.082816,1.00275079,.0004282,1.5295,83.2677,22.3890,206.5261,0,U,36581,999,5910,0,.144E-5,0
COMSATBW-2,2010-021B,2026-07-11T04:42:38.591136,1.00272490,.0002371,0.0465,127.0332,2.6702,243.2748,0,U,36582,999,5919,0,.96E-6,0
